satname,norad_id,inclination_deg,eccentricity,mean_motion_rev_per_day,perigee_km,apogee_km,l1,l2
STARLINK-1434,45712,53.0517,0.0003611,15.14220845,520.8528970351244,525.8371473515517,1 45712U 20035BH  25292.32833231  .00075286  00000+0  40469-2 0  9996,2 45712  53.0517 308.0994 0003611  14.4619 345.6476 15.14220845297893
STARLINK-1465,45731,53.0525,0.0001664,15.06410285,546.0276633191334,548.3324088287382,1 45731U 20038B   25292.26347808  .00001494  00000+0  11912-3 0  9995,2 45731  53.0525 151.5056 0001664  88.4895 271.6285 15.06410285294877
STARLINK-1471,45735,53.0495,0.0002762,15.40208972,443.60735234914864,447.3767250301207,1 45735U 20038F   25292.09788410  .00034369  00000+0  84865-3 0  9992,2 45735  53.0495  95.5233 0002762 132.8642 227.2594 15.40208972295658
STARLINK-1474,45738,53.0388,0.0003173,15.64680136,372.0163368712374,376.30134381151765,1 45738U 20038J   25292.07991290  .00108733  00000+0  10915-2 0  9996,2 45738  53.0388  55.2186 0003173 249.9940 110.0732 15.64680136296218
STARLINK-1475,45739,53.0524,0.0004404,15.71399482,351.9312038541648,357.86165970087495,1 45739U 20038K   25292.33336806  .00232223  00000+0  17408-2 0  9998,2 45739  53.0524  21.2028 0004404 302.7105  46.6478 15.71399482  5979
STARLINK-1480,45741,53.0531,0.0001473,15.06409191,546.1632892969483,548.2034886835454,1 45741U 20038M   25292.04600821  .00000876  00000+0  77681-4 0  9998,2 45741  53.0531 152.4838 0001473  93.5947 266.5210 15.06409191294859
STARLINK-1500,45744,53.0368,0.0004615,15.26854902,482.0537197160438,488.38859929726823,1 45744U 20038Q   25292.19532295  .00033007  00000+0  12418-2 0  9993,2 45744  53.0368 132.4203 0004615 146.2114 213.9179 15.26854902295146
STARLINK-1504,45746,53.0277,0.0005137,15.38723218,446.3762654854472,453.3913740756889,1 45746U 20038S   25292.17206150  .00120596  00000+0  30649-2 0  9997,2 45746  53.0277  98.2314 0005137 148.3485 211.7827 15.38723218295619
STARLINK-1506,45747,53.051,0.000379,15.20907438,500.49416938209197,505.71014866463156,1 45747U 20038T   25292.29972906  .00034866  00000+0  15638-2 0  9995,2 45747  53.0510 133.8974 0003790 167.3851 192.7240 15.20907438295132
STARLINK-1464,45751,53.0537,0.0001425,15.06411416,546.1897125797514,548.1634269471333,1 45751U 20038X   25292.18054360  .00000576  00000+0  57534-4 0  9997,2 45751  53.0537 131.8773 0001425  85.1361 274.9790 15.06411416295152
STARLINK-1477,45754,53.0525,0.0001264,15.06383994,546.385244198892,548.1359847158274,1 45754U 20038AA  25292.06260291  .00003693  00000+0  26681-3 0  9990,2 45754  53.0525 132.4060 0001264  90.3173 269.7961 15.06383994295137
STARLINK-1478,45755,53.0518,0.0001378,15.06405755,546.2396091475621,548.1482303490457,1 45755U 20038AB  25292.08102787  .00003134  00000+0  22916-3 0  9995,2 45755  53.0518 132.3249 0001378  87.0811 273.0336 15.06405755295129
STARLINK-1484,45756,53.0181,0.0001466,15.57766708,393.1292432065311,395.114869561864,1 45756U 20038AC  25292.02023029  .00078421  00000+0  10332-2 0  9990,2 45756  53.0181  42.9881 0001466 210.1720 149.9207 15.57766708296370
STARLINK-1493,45759,53.0516,0.0001363,15.06409059,546.2398723229908,548.1277147713126,1 45759U 20038AF  25292.26901303  .00002393  00000+0  17942-3 0  9999,2 45759  53.0516 131.4805 0001363  91.1495 268.9650 15.06409059295153
STARLINK-1494,45760,53.0534,4.79e-05,15.50264974,415.6263503883256,416.2772240941431,1 45760U 20038AG  25292.22717406  .00056412  00000+0  98134-3 0  9999,2 45760  53.0534 120.6324 0000479  66.3871 293.7187 15.50264974295313
STARLINK-1502,45764,53.0524,0.0001292,15.06419983,546.2555664774654,548.0450607192997,1 45764U 20038AL  25292.16948997  .00006802  00000+0  47482-3 0  9995,2 45764  53.0524 131.9261 0001292  84.5864 275.5273 15.06419983295158
STARLINK-1470,45772,53.0499,0.0004585,15.16780172,512.418627667611,518.7401656033253,1 45772U 20038AU  25292.18000285  .00082336  00000+0  41106-2 0  9997,2 45772  53.0499 105.2902 0004585 162.7617 197.3533 15.16780172295520
STARLINK-1482,45773,53.0522,0.0001622,15.06389397,546.1207579896882,548.3673516038634,1 45773U 20038AV  25292.20083393  .00015025  00000+0  10257-2 0  9996,2 45773  53.0522 111.7866 0001622  96.5147 263.6027 15.06389397295438
STARLINK-1485,45774,53.0419,0.0005371,15.97342677,278.21769039931496,285.37178907414,1 45774U 20038AW  25292.33336806  .00625695  17906-3  13898-2 0  9992,2 45774  53.0419  47.1807 0005371 327.6860 149.4415 15.97342677  6023
STARLINK-1496,45780,53.0522,0.0001302,15.0641393,546.2671899999577,548.0705396471585,1 45780U 20038BC  25292.23399127  .00004583  00000+0  32625-3 0  9993,2 45780  53.0522 111.6367 0001302  90.1841 269.9297 15.06413930295425
STARLINK-1497,45781,53.0404,0.0007224,15.5027605,411.01140044093427,420.8274531663792,1 45781U 20038BD  25292.33336806  .00246892  00000+0  41611-2 0  9995,2 45781  53.0404  60.5269 0007224 196.3398 185.3642 15.50276050  5819
STARLINK-1510,45784,53.036,0.0003111,15.65063324,370.956350328237,375.1569430151958,1 45784U 20038BG  25292.02251444  .00243982  00000+0  23658-2 0  9996,2 45784  53.0360  39.6091 0003111 123.4824 236.6488 15.65063324296431
STARLINK-1513,45786,53.0539,0.0001474,15.06402281,546.1837716636455,548.2253623575998,1 45786U 20038BJ  25292.06443683  .00000528  00000+0  54350-4 0  9992,2 45786  53.0539 112.3998 0001474  88.5808 271.5350 15.06402281295416
STARLINK-1522,46027,53.0549,0.0001314,15.0640384,546.289799662276,548.109778170402,1 46027U 20055A   25292.04507775  .00001409  00000+0  11347-3 0  9998,2 46027  53.0549  42.4838 0001314  93.7181 266.3958 15.06403840287539
STARLINK-1523,46028,53.0563,0.0001522,15.06399736,546.1583288867059,548.2664052340406,1 46028U 20055B   25291.52906043  .00001796  00000+0  13947-3 0  9999,2 46028  53.0563  44.8030 0001522  84.3914 275.7249 15.06399736287475
STARLINK-1526,46029,53.0551,0.0002074,15.06390556,545.8041792952727,548.6768258833472,1 46029U 20055C   25291.72072281 -.00000709  00000+0 -28721-4 0  9992,2 46029  53.0551  43.9372 0002074  88.0764 272.0463 15.06390556287490
STARLINK-1555,46032,53.0567,0.0001339,15.06401446,546.2798225815923,548.1344297385776,1 46032U 20055F   25292.03771610  .00002461  00000+0  18402-3 0  9992,2 46032  53.0567  42.5167 0001339  83.4704 276.6437 15.06401446287542
STARLINK-1556,46033,53.0544,0.0001173,15.06413247,546.3586194652335,547.983296712202,1 46033U 20055G   25292.01928659  .00004863  00000+0  34499-3 0  9990,2 46033  53.0544  42.6017 0001173  86.8474 273.2650 15.06413247287519
